XRISM                   
1 57800U 23137A   24111.89956563  .00010750  00000+0  82812-3 0  9992
2 57800  31.0054  17.0797 0010000 358.9077   1.1535 15.00399922 33995
